     3.00           N                   E                   RINEX VERSION / TYPE
BRD_USR             ESA                 20190104 112005  UTCPGM / RUN BY / DATE
 GAL   4.4750E+01 -1.5625E-02 -2.1362E-03  0.0000E+00       IONOSPHERIC CORR
GAUT  2.7939677238E-09-1.776356839E-15 432000 2034 GSTB   0 TIME SYSTEM CORR
GPGA -3.0559021980E-09-1.154631946E-14 432000 2034 GSTB   0 TIME SYSTEM CORR
                                                            END OF HEADER
E08 2019 01 04 09 10 00 6.430166249629E-03-7.489120434911E-12 0.000000000000E+00
     7.000000000000E+00 5.000000000000E-01 3.698725495335E-09 2.540477481884E+00
    -1.173466444016E-07 2.365451073274E-04 3.803521394730E-06 5.440603128433E+03
     4.650000000000E+05-3.911554813385E-08 1.357164205302E+00-1.862645149231E-09
     9.581327203137E-01 2.557187500000E+02 5.144038258870E-01-5.756311202038E-09
    -3.928735076157E-11 5.210000000000E+02 2.034000000000E+03 0.000000000000E+00
     3.120000000000E+00 0.000000000000E+00-8.381903171539E-09-9.778887033463E-09
     4.656850000000E+05 0.000000000000E+00 0.000000000000E+00 0.000000000000E+00
E09 2019 01 04 09 10 00 6.568449374754E-03-1.132605120802E-11 0.000000000000E+00
     7.000000000000E+00 9.718750000000E+00 3.660152460041E-09-1.031694700123E+00
     4.153698682785E-07 2.575693652034E-04 4.021450877190E-06 5.440603651047E+03
     4.650000000000E+05-3.166496753693E-08 1.357158865651E+00 1.862645149231E-09
     9.581626647838E-01 2.546250000000E+02 1.583333572770E-01-5.749525205089E-09
     9.428964182777E-11 5.210000000000E+02 2.034000000000E+03 0.000000000000E+00
     3.120000000000E+00 0.000000000000E+00-3.259629011154E-09-3.958120942116E-09
     4.656850000000E+05 0.000000000000E+00 0.000000000000E+00 0.000000000000E+00
E11 2019 01 04 09 10 00 5.718951055314E-03 1.179500941362E-12 0.000000000000E+00
     7.000000000000E+00-1.977812500000E+02 2.756543392525E-09 1.582789314580E+00
    -9.274110198021E-06 2.373807365075E-04 5.492940545082E-06 5.440606475830E+03
     4.650000000000E+05 1.117587089539E-08-7.393974577977E-01-5.587935447693E-09
     9.820163428195E-01 2.332812500000E+02-3.605714111094E-01-5.472370803352E-09
    -2.007226466182E-10 5.210000000000E+02 2.034000000000E+03 0.000000000000E+00
     3.120000000000E+00 0.000000000000E+00-1.862645149231E-08-2.025626599789E-08
     4.656850000000E+05 0.000000000000E+00 0.000000000000E+00 0.000000000000E+00
E12 2019 01 04 09 10 00 5.866629129741E-03 8.434142273472E-11 0.000000000000E+00
     7.000000000000E+00-2.119062500000E+02 2.722256250043E-09 2.930702537970E+00
    -9.765848517418E-06 3.664612304419E-04 5.843117833138E-06 5.440611383438E+03
     4.650000000000E+05 1.676380634308E-08-7.394132353692E-01 0.000000000000E+00
     9.820305477541E-01 2.253125000000E+02-9.048081669720E-01-5.473085118821E-09
    -2.175090601254E-10 5.210000000000E+02 2.034000000000E+03 0.000000000000E+00
     3.120000000000E+00 0.000000000000E+00-1.559965312481E-08-1.606531441212E-08
     4.656850000000E+05 0.000000000000E+00 0.000000000000E+00 0.000000000000E+00
E13 2019 01 04 09 10 00 3.813162911683E-04 4.121147867409E-13 0.000000000000E+00
     7.000000000000E+00-2.025937500000E+02 2.642252917583E-09-2.946444753651E-01
    -9.501352906227E-06 3.317054361105E-04 7.444992661476E-06 5.440606037140E+03
     4.650000000000E+05 1.676380634308E-08-7.447011853707E-01 7.450580596924E-09
     9.852576470214E-01 1.907812500000E+02-1.618393193053E+00-5.462370386795E-09
    -2.353669468352E-10 5.210000000000E+02 2.034000000000E+03 0.000000000000E+00
     3.120000000000E+00 4.550000000000E+02-4.423782229424E-09-5.355104804039E-09
     4.656850000000E+05 0.000000000000E+00 0.000000000000E+00 0.000000000000E+00
E14 2019 01 04 09 10 00 6.464968901128E-03-5.584865903074E-12 0.000000000000E+00
     7.000000000000E+00-2.887500000000E+01 6.844213660400E-09 6.664860201037E-03
    -2.086162567139E-06 1.663727010600E-01 5.461275577545E-06 5.289312500000E+03
     4.650000000000E+05-3.002583980560E-06-1.339462113882E+00-5.327165126801E-07
     8.825601585617E-01 2.607500000000E+02 1.451658626403E+00-1.144297664591E-08
    -5.050210361533E-10 5.210000000000E+02 2.034000000000E+03 0.000000000000E+00
     3.120000000000E+00 4.550000000000E+02 3.306195139885E-08 3.702007234097E-08
     4.656850000000E+05 0.000000000000E+00 0.000000000000E+00 0.000000000000E+00
E15 2019 01 04 09 10 00 9.238999919035E-04-1.051603248925E-12 0.000000000000E+00
     7.000000000000E+00-1.849375000000E+02 2.754757603854E-09 5.739711056404E-01
    -8.644536137581E-06 3.790403716266E-04 6.970018148422E-06 5.440598680496E+03
     4.650000000000E+05-3.725290298462E-09-7.447125156712E-01 1.862645149231E-08
     9.852154564640E-01 2.033750000000E+02-1.704820432865E+00-5.454155758908E-09
    -2.175090601254E-10 5.210000000000E+02 2.034000000000E+03 0.000000000000E+00
     3.120000000000E+00 4.550000000000E+02 1.396983861923E-09 1.396983861923E-09
     4.656850000000E+05 0.000000000000E+00 0.000000000000E+00 0.000000000000E+00
E19 2019 01 04 09 10 00-9.381561540067E-06 2.984279490192E-13 0.000000000000E+00
     7.000000000000E+00 6.843750000000E+00 3.731941164615E-09-1.425759439255E+00
     3.650784492493E-07 1.416729064658E-04 3.958120942116E-06 5.440601659775E+03
     4.650000000000E+05 1.676380634308E-08 1.362517277102E+00 1.862645149231E-09
     9.579197501626E-01 2.513437500000E+02 2.202541040035E+00-5.738810473063E-09
     6.178828801592E-11 5.210000000000E+02 2.034000000000E+03 0.000000000000E+00
     3.120000000000E+00 0.000000000000E+00-8.847564458847E-09-9.080395102501E-09
     4.656850000000E+05 0.000000000000E+00 0.000000000000E+00 0.000000000000E+00
E24 2019 01 04 09 10 00 6.303720234428E-03-1.961097950698E-11 0.000000000000E+00
     7.000000000000E+00 1.789375000000E+02 2.401885762469E-09 2.872807764180E+00
     8.407980203629E-06 4.633357748389E-04 9.650364518166E-06 5.440622087479E+03
     4.650000000000E+05 1.303851604462E-08-2.821643607296E+00 7.450580596924E-09
     9.879162124357E-01 1.460312500000E+02 4.438278520572E-01-5.238432487454E-09
     1.978653847446E-10 5.210000000000E+02 2.034000000000E+03 0.000000000000E+00
     3.120000000000E+00 0.000000000000E+00 4.284083843231E-08 4.819594323635E-08
     4.656850000000E+05 0.000000000000E+00 0.000000000000E+00 0.000000000000E+00
E26 2019 01 04 09 10 00 5.058769136667E-03-4.337152859080E-11 0.000000000000E+00
     7.000000000000E+00-2.173750000000E+02 2.830117885770E-09-5.758303165240E-01
    -1.009739935398E-05 3.232900053263E-04 7.040798664093E-06 5.440611019135E+03
     4.650000000000E+05 5.587935447693E-09-7.357572962961E-01-1.117587089539E-08
     9.783744477600E-01 1.991875000000E+02-2.118882418038E+00-5.514158258253E-09
    -2.271523189487E-10 5.210000000000E+02 2.034000000000E+03 0.000000000000E+00
     3.120000000000E+00 0.000000000000E+00 1.396983861923E-09 1.396983861923E-09
     4.656850000000E+05 0.000000000000E+00 0.000000000000E+00 0.000000000000E+00
E36 2019 01 04 09 10 00 7.636873051524E-04-4.419575816428E-12 0.000000000000E+00
     7.000000000000E+00-1.825937500000E+02 2.649753230001E-09 2.088666949614E+00
    -8.577480912209E-06 3.211519215256E-04 6.187707185745E-06 5.440608020782E+03
     4.650000000000E+05-2.421438694000E-08-7.447109722926E-01-1.862645149231E-09
     9.852620255353E-01 2.228125000000E+02-1.646599637541E+00-5.432726294857E-09
    -2.146517982518E-10 5.210000000000E+02 2.034000000000E+03 0.000000000000E+00
     3.120000000000E+00 4.550000000000E+02 9.313225746155E-10 1.164153218269E-09
     4.656850000000E+05 0.000000000000E+00 0.000000000000E+00 0.000000000000E+00
E03 2019 01 04 09 10 00-1.183399581350E-04-4.263256414561E-12 0.000000000000E+00
     7.000000000000E+00 7.062500000000E+00 3.847660270494E-09-3.089556830135E+00
     3.688037395477E-07 2.841996029019E-04 3.632158041000E-06 5.440606285095E+03
     4.650000000000E+05 3.166496753693E-08 1.365813107187E+00-6.705522537231E-08
     9.521469934984E-01 2.571562500000E+02 6.450179079506E-01-5.892031141033E-09
     7.143154683922E-13 2.580000000000E+02 2.034000000000E+03 0.000000000000E+00
     3.120000000000E+00 0.000000000000E+00-1.862645149231E-09 0.000000000000E+00
     4.657000000000E+05 0.000000000000E+00 0.000000000000E+00 0.000000000000E+00
E04 2019 01 04 09 10 00-1.929605496116E-04-7.872813512222E-12 0.000000000000E+00
     7.000000000000E+00 8.187500000000E+00 3.794800925833E-09-1.931268655926E+00
     2.868473529816E-07 8.671334944665E-05 3.891065716743E-06 5.440601865768E+03
     4.650000000000E+05 0.000000000000E+00 1.365862624038E+00-1.303851604462E-08
     9.521914998551E-01 2.503750000000E+02 1.847393772212E+00-5.790241186787E-09
     5.821671067396E-11 2.580000000000E+02 2.034000000000E+03 0.000000000000E+00
     3.120000000000E+00 0.000000000000E+00-7.916241884232E-09 0.000000000000E+00
     4.657000000000E+05 0.000000000000E+00 0.000000000000E+00 0.000000000000E+00
E05 2019 01 04 09 10 00 1.309504732490E-04-6.522782314278E-12 0.000000000000E+00
     7.000000000000E+00 7.406250000000E+00 3.801586922783E-09 3.119925688445E+00
     3.930181264877E-07 1.531395828351E-04 3.883615136147E-06 5.440605146408E+03
     4.650000000000E+05 3.911554813385E-08 1.365795476098E+00 5.215406417847E-08
     9.521605488973E-01 2.540000000000E+02 1.506180142243E+00-5.868815888310E-09
     7.286017777600E-11 2.580000000000E+02 2.034000000000E+03 0.000000000000E+00
     3.120000000000E+00 0.000000000000E+00-1.629814505577E-09 0.000000000000E+00
     4.657000000000E+05 0.000000000000E+00 0.000000000000E+00 0.000000000000E+00
